1 41882U 16077A   19222.24570394 -.00000348  00000-0  00000+0 0  9999
2 41882   0.0688  75.1431 0002514  72.5702   3.7897  1.00266736  9883
1 41882U 16077A   19223.53182132 -.00000348  00000-0  00000+0 0  9991
2 41882   0.0717  76.9346 0002574  67.2745 111.5439  1.00266325  9899
1 41882U 16077A   19224.53680252 -.00000347  00000-0  00000+0 0  9997
2 41882   0.0739  77.8195 0002649  65.1253 115.5754  1.00266043  9902
1 41882U 16077A   19225.54180118 -.00000347  00000-0  00000+0 0  9995
2 41882   0.0761  78.7102 0002782  65.8908 116.6911  1.00265801  9916
1 41882U 16077A   19226.54681613 -.00000346  00000-0  00000+0 0  9991
2 41882   0.0782  79.3438 0002864  65.9919 118.7331  1.00265523  9923
1 41882U 16077A   19227.76724315 -.00000344  00000-0  00000+0 0  9991
2 41882   0.0808  79.7951 0002896  65.4432 199.3609  1.00265052  9937
1 41882U 16077A   19228.91582924 -.00000343  00000-0  00000+0 0  9996
2 41882   0.0822  83.1701 0002290  43.7929 272.2738  1.00280827  9956
1 41882U 16077A   19229.59499947 -.00000342  00000-0  00000+0 0  9992
2 41882   0.0832  83.4325 0002304  51.2169 149.7739  1.00279477  9956
1 41882U 16077A   19230.92583582 -.00000339 +00000-0 +00000-0 0  9997
2 41882 000.0859 083.6991 0002273 054.8490 266.3228 01.00278997009974
1 41882U 16077A   19231.93087697 -.00000336 +00000-0 +00000-0 0  9992
2 41882 000.0882 083.8363 0002239 053.9232 269.9428 01.00278598009980
1 41882U 16077A   19232.50516584 -.00000335  00000-0  00000+0 0  9996
2 41882   0.0895  83.8784 0002225  53.9065 117.2405  1.00278266  9982
1 41882U 16077A   19233.60381941 -.00000333  00000-0  00000+0 0  9993
2 41882   0.0919  83.9371 0002189  53.7319 153.9787  1.00277720  9996
1 41882U 16077A   19234.87411120 -.00000333 +00000-0 +00000-0 0  9997
2 41882 000.0946 084.0023 0002139 053.7758 252.4519 01.00277086010012
1 41882U 16077A   19235.44843023 -.00000333  00000-0  00000+0 0  9991
2 41882   0.0959  84.0055 0002127  54.1703  99.3850  1.00276778 10016
1 41882U 16077A   19236.59876845 -.00000334  00000-0  00000+0 0  9997
2 41882   0.0983  84.0980 0002105  54.2938 154.4433  1.00276203 10021
1 41882U 16077A   19237.92464183 -.00000338  00000-0  00000+0 0  9997
2 41882   0.1010  84.2786 0002087  53.9047 273.2911  1.00275516 10044
1 41882U 16077A   19238.89414877 -.00000341 +00000-0 +00000-0 0  9994
2 41882 000.1031 084.3936 0001996 053.5052 263.5637 01.00274953010057
1 41882U 16077A   19239.03773906 -.00000342  00000-0  00000+0 0  9992
2 41882   0.1035  84.4154 0001997  53.7675 315.1150  1.00274878 10058
1 41882U 16077A   19240.27336248 -.00000346  00000-0  00000+0 0  9998
2 41882   0.1060  84.6236 0001920  53.9333  40.7922  1.00274152 10062
1 41882U 16077A   19241.40678086 -.00000350  00000-0  00000+0 0  9998
2 41882   0.1085  84.8882 0001855  55.8674  87.7464  1.00273453 10070
1 41882U 16077A   19242.55524762 -.00000352  00000-0  00000+0 0  9998
2 41882   0.1109  85.2185 0001802  56.8033 141.0624  1.00272754 10086
1 41882U 16077A   19243.87582461 -.00000354  00000-0  00000+0 0  9996
2 41882   0.1141  85.5990 0001773  55.9120 258.2819  1.00271964 10105
1 41882U 16077A   19244.88430856 -.00000354  00000-0  00000+0 0  9998
2 41882   0.1165  85.7483 0001784  54.4352 263.6546  1.00271372 10114
1 41882U 16077A   19245.90152604 -.00000354  00000-0  00000+0 0  9994
2 41882   0.1189  85.8338 0001806  52.7924 272.4084  1.00270814 10127
1 41882U 16077A   19246.90453668 -.00000353  00000-0  00000+0 0  9998
2 41882   0.1212  85.9217 0001825  52.3705 274.8104  1.00270334 10132
1 41882U 16077A   19247.92291560 -.00000353  00000-0  00000+0 0  9992
2 41882   0.1242  86.6384 0001881  46.9620 287.1145  1.00269697 10148
1 41882U 16077A   19248.94420709 -.00000353 +00000-0 +00000-0 0  9995
2 41882 000.1267 086.8050 0001910 046.0865 296.4871 01.00269233010158
1 41882U 16077A   19249.01600225 -.00000353  00000-0  00000+0 0  9996
2 41882   0.1269  86.8217 0001911  45.7211 322.7524  1.00269205 10154
1 41882U 16077A   19250.02132663 -.00000353  00000-0  00000+0 0  9995
2 41882   0.1295  87.0900 0001948  44.3370 326.7673  1.00268783 10166
1 41882U 16077A   19251.22158829 -.00000352  00000-0  00000+0 0  9999
2 41882   0.1323  87.4019 0002188  40.8721  43.1919  1.00268589 10179
1 41882U 16077A   19252.53352829 -.00000352  00000-0  00000+0 0  9990
2 41882   0.1353  87.6430 0002257  41.8547 155.5491  1.00268299 10187
1 41882U 16077A   19253.56709409 -.00000351  00000-0  00000+0 0  9993
2 41882   0.1377  87.7528 0002320  43.4786 166.9093  1.00268155 10192
1 41882U 16077A   19254.86368843 -.00000349  00000-0  00000+0 0  9997
2 41882   0.1405  87.8566 0002353  43.9749 274.3470  1.00267819 10219
1 41882U 16077A   19255.89293346 -.00000346  00000-0  00000+0 0  9993
2 41882   0.1428  87.8950 0002349  45.2542 284.5582  1.00267459 10220
1 41882U 16077A   19256.91247362 -.00000344 +00000-0 +00000-0 0  9993
2 41882 000.1450 087.9603 0002375 045.8138 291.9579 01.00267083010239
1 41882U 16077A   19257.10882760 -.00000343  00000-0  00000+0 0  9990
2 41882   0.1454  87.9826 0002372  45.6742   2.9530  1.00267000 10232
1 41882U 16077A   19258.49177904 -.00000339  00000-0  00000+0 0  9995
2 41882   0.1485  88.0770 0002398  47.0663 140.6707  1.00266568 10247
1 41882U 16077A   19259.50171647 -.00000336  00000-0  00000+0 0  9993
2 41882   0.1507  88.1046 0002394  47.3457 144.9181  1.00266144 10253
1 41882U 16077A   19260.59739037 -.00000333  00000-0  00000+0 0  9994
2 41882   0.1531  88.1649 0002393  47.8834 179.8214  1.00265743 10261
1 41882U 16077A   19261.87688411 -.00000332  00000-0  00000+0 0  9994
2 41882   0.1558  88.2552 0002377  47.9635 281.5015  1.00265188 10281
1 41882U 16077A   19262.22532008 -.00000332 +00000-0 +00000-0 0  9995
2 41882 000.1566 088.2648 0002341 048.9011 046.3263 01.00265045010280
1 41882U 16077A   19263.49521475 -.00000334  00000-0  00000+0 0  9992
2 41882   0.1584  88.4360 0002073  31.9175 161.6253  1.00278157 10297
1 41882U 16077A   19264.88591206 -.00000337  00000-0  00000+0 0  9998
2 41882   0.1612  88.4975 0002106  30.8878 304.6447  1.00277443 10310
1 41882U 16077A   19265.88824416 -.00000339  00000-0  00000+0 0  9993
2 41882   0.1635  88.5313 0002027  31.2109 306.1328  1.00276835 10326
1 41882U 16077A   19266.89081619 -.00000343 +00000-0 +00000-0 0  9991
2 41882 000.1657 088.5469 0002014 031.0774 308.1814 01.00276322010338
1 41882U 16077A   19267.23092137 -.00000344  00000-0  00000+0 0  9997
2 41882   0.1665  88.5496 0001982  31.0593  70.9746  1.00276119 10331
1 41882U 16077A   19268.23968286 -.00000347  00000-0  00000+0 0  9998
2 41882   0.1687  88.5656 0001965  30.8102  75.3698  1.00275589 10343
1 41882U 16077A   19269.54694071 -.00000350  00000-0  00000+0 0  9995
2 41882   0.1718  88.6300 0001964  30.5810 187.4511  1.00274918 10352
1 41882U 16077A   19270.55196220 -.00000351  00000-0  00000+0 0  9992
2 41882   0.1742  88.6383 0002120  40.5310 180.2784  1.00272790 10361
1 41882U 16077A   19271.90008848 -.00000352  00000-0  00000+0 0  9991
2 41882   0.1776  88.7869 0002098  26.9288 320.4174  1.00273645 10387
1 41882U 16077A   19272.91136405 -.00000352  00000-0  00000+0 0  9994
2 41882   0.1800  88.8658 0002128  26.5220 325.8063  1.00273139 10393
1 41882U 16077A   19273.92513013 -.00000351  00000-0  00000+0 0  9999
2 41882   0.1824  88.8753 0002152  26.3076 331.9697  1.00272635 10402
1 41882U 16077A   19274.94494722 -.00000351 +00000-0 +00000-0 0  9998
2 41882 000.1851 088.9796 0002215 024.8510 341.4619 01.00272054010412
1 41882U 16077A   19275.00269686 -.00000351  00000-0  00000+0 0  9994
2 41882   0.1853  88.9796 0002220  24.7382   2.4216  1.00272030 10417
1 41882U 16077A   19276.24956032 -.00000350  00000-0  00000+0 0  9998
2 41882   0.1885  89.0672 0002278  23.9099  93.2617  1.00271410 10421
1 41882U 16077A   19277.29831328 -.00000350  00000-0  00000+0 0  9994
2 41882   0.1911  89.1143 0002326  23.6882 112.0197  1.00270935 10431
1 41882U 16077A   19278.57388543 -.00000350  00000-0  00000+0 0  9992
2 41882   0.1944  89.1944 0002503  21.5130 214.5809  1.00270612 10447
1 41882U 16077A   19279.57766793 -.00000349  00000-0  00000+0 0  9998
2 41882   0.1971  89.2937 0002598  22.2242 216.1218  1.00270365 10454
1 41882U 16077A   19280.88674590 -.00000347  00000-0  00000+0 0  9995
2 41882   0.2001  89.3521 0002671  23.6570 327.1870  1.00270033 10471
1 41882U 16077A   19281.89122534 -.00000345  00000-0  00000+0 0  9991
2 41882   0.2024  89.3795 0002708  24.5302 328.8858  1.00269751 10483
1 41882U 16077A   19282.46889285 -.00000344  00000-0  00000+0 0  9997
2 41882   0.2037  89.3965 0002745  26.4665 175.4632  1.00269798 10487
1 41882U 16077A   19283.40159087 -.00000342  00000-0  00000+0 0  9990
2 41882   0.2454 286.7041 0002131 133.5270 207.8066  1.00268579 10497
1 41882U 16077A   19284.47837685 -.00000339  00000-0  00000+0 0  9991
2 41882   0.2385 287.0069 0002911 146.6617 223.0790  1.00270612 10507
1 41882U 16077A   19285.58849153 -.00000336  00000-0  00000+0 0  9994
2 41882   0.2361 287.0224 0002954 147.7514 262.7041  1.00270189 10518
1 41882U 16077A   19286.59066083 -.00000332  00000-0  00000+0 0  9995
2 41882   0.2339 287.0256 0002775 146.0679 266.1444  1.00269615 10521
1 41882U 16077A   19287.59506127 -.00000330  00000-0  00000+0 0  9992
2 41882   0.2316 287.0256 0002733 145.5399 269.2374  1.00269141 10534
1 41882U 16077A   19288.91173329 -.00000327  00000-0  00000+0 0  9999
2 41882   0.2287 287.0273 0002642 144.1594  25.8986  1.00268331 10558
1 41882U 16077A   19289.93411955 -.00000326 +00000-0 +00000-0 0  9992
2 41882 000.2265 287.0375 0002694 145.1824 033.9175 01.00267774010562
1 41882U 16077A   19290.00591471 -.00000326  00000-0  00000+0 0  9993
2 41882   0.2263 287.0386 0002677 145.0684  59.9460  1.00267722 10564
1 41882U 16077A   19291.24420142 -.00000327  00000-0  00000+0 0  9997
2 41882   0.2236 287.0533 0002659 145.3358 146.6460  1.00267022 10577
1 41882U 16077A   19292.59572228 -.00000329  00000-0  00000+0 0  9991
2 41882   0.2204 287.0889 0002614 145.1828 274.6125  1.00266142 10580
